SILVERSAT               
1 66909U 98067XV  26042.70038587  .00137849  00000+0  14215-2 0  9998
2 66909  51.6264 197.1110 0002523 274.1167  85.9539 15.63847385 11119
ISS OBJECT XW           
1 66910U 98067XW  26042.46281613  .00120044  00000+0  13239-2 0  9997
2 66910  51.6249 198.5199 0001518 308.9215  51.1644 15.62201503 11071
ISS OBJECT XX           
1 66911U 98067XX  26043.43419022  .00173030  00000+0  16656-2 0  9992
2 66911  51.6233 193.0014 0003296 303.1833  56.8846 15.65452637 11221
ISS OBJECT XY           
1 66912U 98067XY  26043.42795819  .00089002  00000+0  11012-2 0  9999
2 66912  51.6279 194.4731 0000354 282.3599  77.7354 15.59344133 11200
ISS OBJECT XZ           
1 67683U 98067XZ  26043.46649803  .00040412  00000+0  71646-3 0  9992
2 67683  51.6302 196.9761 0010767 104.8798 255.3384 15.49783798   872
GXIBA-1                 
1 67684U 98067YA  26043.46410700  .00076032  00000+0  13010-2 0  9992
2 67684  51.6298 196.9618 0012601  98.9374 261.3042 15.50485435   877
CORAL                   
1 67685U 98067YB  26043.46599233  .00045832  00000+0  80641-3 0  9991
2 67685  51.6302 196.9730 0012714 100.4250 259.8173 15.49916259   874
ISS OBJECT YC           
1 67686U 98067YC  26043.46560099  .00053641  00000+0  93890-3 0  9997
2 67686  51.6304 196.9720 0007826  75.5097 284.6760 15.50049549   874
LEOPARD                 
1 67687U 98067YD  26043.46619948  .00043828  00000+0  77458-3 0  9994
2 67687  51.6306 196.9748 0007881  77.6214 282.5656 15.49864158   793
ISS OBJECT YE           
1 67688U 98067YE  26043.46572214  .00048919  00000+0  85915-3 0  9992
2 67688  51.6308 196.9720 0007768  76.3911 283.7943 15.49994492   797
